{"type": "FeatureCollection", "features": [ {"type": "Feature", "properties": {"norad_id": 34375, "name": "IRIDIUM 33 DEB", "group": "iridium-33-debris", "lat": 77.80103018314976, "lon": -164.7464422537577, "alt_km": 752.8026909226564, "timestamp": "2025-12-23T05:02:12.415138+00:00", "meta": {"OBJECT_NAME": "IRIDIUM 33 DEB", "OBJECT_ID": "1997-051FT", "EPOCH": "2025-12-22T12:02:26.342592", "MEAN_MOTION": 14.18009533, "ECCENTRICITY": 0.01037059, "INCLINATION": 86.4323, "RA_OF_ASC_NODE": 178.7659, "ARG_OF_PERICENTER": 96.2041, "MEAN_ANOMALY": 329.6113, "EPHEMERIS_TYPE": 0, "CLASSIFICATION_TYPE": "U", "NORAD_CAT_ID": 34375, "ELEMENT_SET_NO": 999, "REV_AT_EPOCH": 86850, "BSTAR": 0.00038502204, "MEAN_MOTION_DOT": 8.51e-06, "MEAN_MOTION_DDOT": 0}, "tle": {"line1": "1 34375U 97051FT  25356.50169378  .00000851  00000+0  38502-3 0  9998", "line2": "2 34375  86.4323 178.7659 0103705  96.2041 329.6113 14.18009533868507"}}, "geometry": {"type": "Point", "coordinates": [-164.7464422537577, 77.80103018314976]}}, {"type": "Feature", "properties": {"norad_id": 34376, "name": "IRIDIUM 33 DEB", "group": "iridium-33-debris", "lat": -29.130895575319606, "lon": -0.23611113963216138, "alt_km": 709.3665732237068, "timestamp": "2025-12-23T05:02:12.415148+00:00", "meta": {"OBJECT_NAME": "IRIDIUM 33 DEB", "OBJECT_ID": "1997-051FU", "EPOCH": "2025-12-22T17:40:39.041472", "MEAN_MOTION": 14.62694295, "ECCENTRICITY": 0.00282683, "INCLINATION": 86.2978, "RA_OF_ASC_NODE": 2.0446, "ARG_OF_PERICENTER": 133.8099, "MEAN_ANOMALY": 226.5457, "EPHEMERIS_TYPE": 0, "CLASSIFICATION_TYPE": "U", "NORAD_CAT_ID": 34376, "ELEMENT_SET_NO": 999, "REV_AT_EPOCH": 88153, "BSTAR": 0.0014444618, "MEAN_MOTION_DOT": 7.418e-05, "MEAN_MOTION_DDOT": 0}, "tle": {"line1": "1 34376U 97051FU  25356.73656298  .00007418  00000+0  14445-2 0  9991", "line2": "2 34376  86.2978   2.0446 0028268 133.8099 226.5457 14.62694295881534"}}, "geometry": {"type": "Point", "coordinates": [-0.23611113963216138, -29.130895575319606]}}, {"type": "Feature", "properties": {"norad_id": 34486, "name": "IRIDIUM 33 DEB", "group": "iridium-33-debris", "lat": 3.937420784326591, "lon": 7.439053301518068, "alt_km": 579.0646418572478, "timestamp": "2025-12-23T05:02:12.415158+00:00", "meta": {"OBJECT_NAME": "IRIDIUM 33 DEB", "OBJECT_ID": "1997-051GB", "EPOCH": "2025-12-22T11:56:52.779840", "MEAN_MOTION": 14.9620636, "ECCENTRICITY": 0.00139165, "INCLINATION": 86.3926, "RA_OF_ASC_NODE": 7.5191, "ARG_OF_PERICENTER": 84.4454, "MEAN_ANOMALY": 47.0404, "EPHEMERIS_TYPE": 0, "CLASSIFICATION_TYPE": "U", "NORAD_CAT_ID": 34486, "ELEMENT_SET_NO": 999, "REV_AT_EPOCH": 89132, "BSTAR": 0.002364133, "MEAN_MOTION_DOT": 0.00026794, "MEAN_MOTION_DDOT": 0}, "tle": {"line1": "1 34486U 97051GB  25356.49783310  .00026794  00000+0  23641-2 0  9998", "line2": "2 34486  86.3926   7.5191 0013916  84.4454  47.0404 14.96206360891322"}}, "geometry": {"type": "Point", "coordinates": [7.439053301518068, 3.937420784326591]}}, {"type": "Feature", "properties": {"norad_id": 34487, "name": "IRIDIUM 33 DEB", "group": "iridium-33-debris", "lat": -12.714021072474928, "lon": -171.3040666098633, "alt_km": 755.2052051840119, "timestamp": "2025-12-23T05:02:12.415169+00:00", "meta": {"OBJECT_NAME": "IRIDIUM 33 DEB", "OBJECT_ID": "1997-051GC", "EPOCH": "2025-12-22T12:14:23.193024", "MEAN_MOTION": 14.43228274, "ECCENTRICITY": 0.00332296, "INCLINATION": 86.3429, "RA_OF_ASC_NODE": 8.1704, "ARG_OF_PERICENTER": 97.9681, "MEAN_ANOMALY": 60.3024, "EPHEMERIS_TYPE": 0, "CLASSIFICATION_TYPE": "U", "NORAD_CAT_ID": 34487, "ELEMENT_SET_NO": 999, "REV_AT_EPOCH": 88389, "BSTAR": 0.00017391804, "MEAN_MOTION_DOT": 6.09e-06, "MEAN_MOTION_DDOT": 0}, "tle": {"line1": "1 34487U 97051GC  25356.50999066  .00000609  00000+0  17392-3 0  9992", "line2": "2 34487  86.3429   8.1704 0033229  97.9681  60.3024 14.43228274883897"}}, "geometry": {"type": "Point", "coordinates": [-171.3040666098633, -12.714021072474928]}}, {"type": "Feature", "properties": {"norad_id": 34488, "name": "IRIDIUM 33 DEB", "group": "iridium-33-debris", "lat": -32.18588469712173, "lon": 122.93590719733976, "alt_km": 483.2895368210693, "timestamp": "2025-12-23T05:02:12.415179+00:00", "meta": {"OBJECT_NAME": "IRIDIUM 33 DEB", "OBJECT_ID": "1997-051GD", "EPOCH": "2025-12-22T20:16:29.836992", "MEAN_MOTION": 15.31851895, "ECCENTRICITY": 0.00102762, "INCLINATION": 86.3272, "RA_OF_ASC_NODE": 300.8002, "ARG_OF_PERICENTER": 36.0994, "MEAN_ANOMALY": 324.0947, "EPHEMERIS_TYPE": 0, "CLASSIFICATION_TYPE": "U", "NORAD_CAT_ID": 34488, "ELEMENT_SET_NO": 999, "REV_AT_EPOCH": 89394, "BSTAR": 0.0043586742, "MEAN_MOTION_DOT": 0.00136379, "MEAN_MOTION_DDOT": 0}, "tle": {"line1": "1 34488U 97051GD  25356.84478978  .00136379  00000+0  43587-2 0  9992", "line2": "2 34488  86.3272 300.8002 0010276  36.0994 324.0947 15.31851895893945"}}, "geometry": {"type": "Point", "coordinates": [122.93590719733976, -32.18588469712173]}}, {"type": "Feature", "properties": {"norad_id": 34492, "name": "IRIDIUM 33 DEB", "group": "iridium-33-debris", "lat": -11.703181315281729, "lon": -30.33702026584831, "alt_km": 919.0410502649474, "timestamp": "2025-12-23T05:02:12.415190+00:00", "meta": {"OBJECT_NAME": "IRIDIUM 33 DEB", "OBJECT_ID": "1997-051GH", "EPOCH": "2025-12-22T16:27:23.909760", "MEAN_MOTION": 14.25892201, "ECCENTRICITY": 0.01887746, "INCLINATION": 86.4712, "RA_OF_ASC_NODE": 330.6072, "ARG_OF_PERICENTER": 205.8586, "MEAN_ANOMALY": 332.2477, "EPHEMERIS_TYPE": 0, "CLASSIFICATION_TYPE": "U", "NORAD_CAT_ID": 34492, "ELEMENT_SET_NO": 999, "REV_AT_EPOCH": 85200, "BSTAR": 0.0029608099, "MEAN_MOTION_DOT": 8.523e-05, "MEAN_MOTION_DDOT": 0}, "tle": {"line1": "1 34492U 97051GH  25356.68569340  .00008523  00000+0  29608-2 0  9990", "line2": "2 34492  86.4712 330.6072 0188774 205.8586 332.2477 14.25892201852009"}}, "geometry": {"type": "Point", "coordinates": [-30.33702026584831, -11.703181315281729]}}, {"type": "Feature", "properties": {"norad_id": 34497, "name": "IRIDIUM 33 DEB", "group": "iridium-33-debris", "lat": -72.4871080680591, "lon": 36.02079412585859, "alt_km": 754.299092599409, "timestamp": "2025-12-23T05:02:12.415200+00:00", "meta": {"OBJECT_NAME": "IRIDIUM 33 DEB", "OBJECT_ID": "1997-051GN", "EPOCH": "2025-12-21T03:02:18.965760", "MEAN_MOTION": 14.27475874, "ECCENTRICITY": 0.00780469, "INCLINATION": 86.2771, "RA_OF_ASC_NODE": 48.8187, "ARG_OF_PERICENTER": 312.1215, "MEAN_ANOMALY": 76.3389, "EPHEMERIS_TYPE": 0, "CLASSIFICATION_TYPE": "U", "NORAD_CAT_ID": 34497, "ELEMENT_SET_NO": 999, "REV_AT_EPOCH": 87003, "BSTAR": 0.00042941712, "MEAN_MOTION_DOT": 1.107e-05, "MEAN_MOTION_DDOT": 0}, "tle": {"line1": "1 34497U 97051GN  25355.12660840  .00001107  00000+0  42942-3 0  9998", "line2": "2 34497  86.2771  48.8187 0078046 312.1215  76.3389 14.27475874870039"}}, "geometry": {"type": "Point", "coordinates": [36.02079412585859, -72.4871080680591]}}, {"type": "Feature", "properties": {"norad_id": 34508, "name": "IRIDIUM 33 DEB", "group": "iridium-33-debris", "lat": 40.414968525878635, "lon": -84.89311684880707, "alt_km": 712.7821794318561, "timestamp": "2025-12-23T05:02:12.415211+00:00", "meta": {"OBJECT_NAME": "IRIDIUM 33 DEB", "OBJECT_ID": "1997-051GZ", "EPOCH": "2025-12-22T06:41:24.031968", "MEAN_MOTION": 14.38495257, "ECCENTRICITY": 0.00666176, "INCLINATION": 86.3708, "RA_OF_ASC_NODE": 98.5996, "ARG_OF_PERICENTER": 142.363, "MEAN_ANOMALY": 218.2258, "EPHEMERIS_TYPE": 0, "CLASSIFICATION_TYPE": "U", "NORAD_CAT_ID": 34508, "ELEMENT_SET_NO": 999, "REV_AT_EPOCH": 87446, "BSTAR": 0.0011650926, "MEAN_MOTION_DOT": 3.671e-05, "MEAN_MOTION_DDOT": 0}, "tle": {"line1": "1 34508U 97051GZ  25356.27875037  .00003671  00000+0  11651-2 0  9994", "line2": "2 34508  86.3708  98.5996 0066617 142.3630 218.2258 14.38495257874460"}}, "geometry": {"type": "Point", "coordinates": [-84.89311684880707, 40.414968525878635]}}, {"type": "Feature", "properties": {"norad_id": 34521, "name": "IRIDIUM 33 DEB", "group": "iridium-33-debris", "lat": 3.956667209224284, "lon": -154.31322089673446, "alt_km": 682.6346355319956, "timestamp": "2025-12-23T05:02:12.415221+00:00", "meta": {"OBJECT_NAME": "IRIDIUM 33 DEB", "OBJECT_ID": "1997-051HN", "EPOCH": "2025-12-22T20:01:49.149696", "MEAN_MOTION": 14.63445001, "ECCENTRICITY": 0.00028204, "INCLINATION": 86.3785, "RA_OF_ASC_NODE": 26.103, "ARG_OF_PERICENTER": 173.5294, "MEAN_ANOMALY": 186.5955, "EPHEMERIS_TYPE": 0, "CLASSIFICATION_TYPE": "U", "NORAD_CAT_ID": 34521, "ELEMENT_SET_NO": 999, "REV_AT_EPOCH": 88620, "BSTAR": 0.00087813516, "MEAN_MOTION_DOT": 4.565e-05, "MEAN_MOTION_DDOT": 0}, "tle": {"line1": "1 34521U 97051HN  25356.83459664  .00004565  00000+0  87814-3 0  9993", "line2": "2 34521  86.3785  26.1030 0002820 173.5294 186.5955 14.63445001886200"}}, "geometry": {"type": "Point", "coordinates": [-154.31322089673446, 3.956667209224284]}}, {"type": "Feature", "properties": {"norad_id": 34525, "name": "IRIDIUM 33 DEB", "group": "iridium-33-debris", "lat": -56.2309190874157, "lon": 36.929376468254404, "alt_km": 758.7179228841296, "timestamp": "2025-12-23T05:02:12.415232+00:00", "meta": {"OBJECT_NAME": "IRIDIUM 33 DEB", "OBJECT_ID": "1997-051HS", "EPOCH": "2025-12-22T21:47:49.036416", "MEAN_MOTION": 14.42928681, "ECCENTRICITY": 0.00063535, "INCLINATION": 86.3718, "RA_OF_ASC_NODE": 42.5032, "ARG_OF_PERICENTER": 71.7431, "MEAN_ANOMALY": 105.9981, "EPHEMERIS_TYPE": 0, "CLASSIFICATION_TYPE": "U", "NORAD_CAT_ID": 34525, "ELEMENT_SET_NO": 999, "REV_AT_EPOCH": 88234, "BSTAR": 0.00032368644, "MEAN_MOTION_DOT": 1.102e-05, "MEAN_MOTION_DDOT": 0}, "tle": {"line1": "1 34525U 97051HS  25356.90820644  .00001102  00000+0  32369-3 0  9994", "line2": "2 34525  86.3718  42.5032 0006353  71.7431 105.9981 14.42928681882343"}}, "geometry": {"type": "Point", "coordinates": [36.929376468254404, -56.2309190874157]}}]}